{"fetched_at":"2026-07-10T07:58:44.755Z","source":"https://celestrak.org/NORAD/elements/gp.php?GROUP=spire&FORMAT=JSON","constellation":"spire","records":[{"OBJECT_NAME":"LEMUR-2-MYRA","OBJECT_ID":"2025-276EC","EPOCH":"2026-07-09T14:26:30.857856","CLASSIFICATION_TYPE":"U","MEAN_MOTION":15.00547888,"ECCENTRICITY":0.0018574,"INCLINATION":97.5217,"RA_OF_ASC_NODE":260.7505,"ARG_OF_PERICENTER":71.159,"MEAN_ANOMALY":289.1646,"EPHEMERIS_TYPE":0,"NORAD_CAT_ID":66787,"ELEMENT_SET_NO":999,"REV_AT_EPOCH":3357,"BSTAR":0.0003374,"MEAN_MOTION_DOT":0.00004214,"MEAN_MOTION_DDOT":0},{"OBJECT_NAME":"LEMUR-2 FIKRETDENGIZ","OBJECT_ID":"2026-004A","EPOCH":"2026-07-09T17:20:41.872704","CLASSIFICATION_TYPE":"U","MEAN_MOTION":14.88491309,"ECCENTRICITY":0.0010439,"INCLINATION":97.8024,"RA_OF_ASC_NODE":188.9369,"ARG_OF_PERICENTER":71.1066,"MEAN_ANOMALY":289.1282,"EPHEMERIS_TYPE":0,"NORAD_CAT_ID":67363,"ELEMENT_SET_NO":999,"REV_AT_EPOCH":2663,"BSTAR":0.00026761,"MEAN_MOTION_DOT":0.00002433,"MEAN_MOTION_DDOT":0},{"OBJECT_NAME":"TWILIGHT-1 OBJECT B","OBJECT_ID":"2026-004B","EPOCH":"2026-07-08T22:48:13.243392","CLASSIFICATION_TYPE":"U","MEAN_MOTION":14.87779263,"ECCENTRICITY":0.00100613,"INCLINATION":97.8069,"RA_OF_ASC_NODE":188.1805,"ARG_OF_PERICENTER":63.6748,"MEAN_ANOMALY":296.5501,"EPHEMERIS_TYPE":0,"NORAD_CAT_ID":67364,"ELEMENT_SET_NO":999,"REV_AT_EPOCH":2652,"BSTAR":0.00015152187,"MEAN_MOTION_DOT":0.0000133,"MEAN_MOTION_DDOT":0},{"OBJECT_NAME":"LEMUR-2-MARIO-SOUSA","OBJECT_ID":"2026-004C","EPOCH":"2026-07-09T16:52:48.118080","CLASSIFICATION_TYPE":"U","MEAN_MOTION":14.88699873,"ECCENTRICITY":0.0010085,"INCLINATION":97.7997,"RA_OF_ASC_NODE":188.9129,"ARG_OF_PERICENTER":72.3315,"MEAN_ANOMALY":287.9002,"EPHEMERIS_TYPE":0,"NORAD_CAT_ID":67365,"ELEMENT_SET_NO":999,"REV_AT_EPOCH":2664,"BSTAR":0.00027192,"MEAN_MOTION_DOT":0.00002486,"MEAN_MOTION_DDOT":0},{"OBJECT_NAME":"LEMUR-2-SONNENBLUME","OBJECT_ID":"2026-004E","EPOCH":"2026-07-08T23:10:37.500384","CLASSIFICATION_TYPE":"U","MEAN_MOTION":14.88433763,"ECCENTRICITY":0.00096572,"INCLINATION":97.7994,"RA_OF_ASC_NODE":188.1619,"ARG_OF_PERICENTER":75.6747,"MEAN_ANOMALY":284.5541,"EPHEMERIS_TYPE":0,"NORAD_CAT_ID":67367,"ELEMENT_SET_NO":999,"REV_AT_EPOCH":2653,"BSTAR":0.0001770761,"MEAN_MOTION_DOT":0.00001589,"MEAN_MOTION_DDOT":0},{"OBJECT_NAME":"LEMUR-2-WOBLER","OBJECT_ID":"2026-004F","EPOCH":"2026-07-08T22:56:39.178464","CLASSIFICATION_TYPE":"U","MEAN_MOTION":14.88670933,"ECCENTRICITY":0.00098675,"INCLINATION":97.8049,"RA_OF_ASC_NODE":188.2967,"ARG_OF_PERICENTER":67.3819,"MEAN_ANOMALY":292.8441,"EPHEMERIS_TYPE":0,"NORAD_CAT_ID":67368,"ELEMENT_SET_NO":999,"REV_AT_EPOCH":2653,"BSTAR":0.00026776253,"MEAN_MOTION_DOT":0.00002446,"MEAN_MOTION_DDOT":0},{"OBJECT_NAME":"LEMUR-2-GRAM-E-SUE","OBJECT_ID":"2026-004H","EPOCH":"2026-07-08T22:44:41.723232","CLASSIFICATION_TYPE":"U","MEAN_MOTION":14.88571655,"ECCENTRICITY":0.00088216,"INCLINATION":97.7979,"RA_OF_ASC_NODE":188.1606,"ARG_OF_PERICENTER":78.1086,"MEAN_ANOMALY":282.1119,"EPHEMERIS_TYPE":0,"NORAD_CAT_ID":67370,"ELEMENT_SET_NO":999,"REV_AT_EPOCH":2653,"BSTAR":0.00019485034,"MEAN_MOTION_DOT":0.0000176,"MEAN_MOTION_DDOT":0},{"OBJECT_NAME":"LEMUR-2-KATIE","OBJECT_ID":"2026-004AA","EPOCH":"2026-07-09T17:12:57.933216","CLASSIFICATION_TYPE":"U","MEAN_MOTION":14.90219671,"ECCENTRICITY":0.0003889,"INCLINATION":97.8041,"RA_OF_ASC_NODE":189.4514,"ARG_OF_PERICENTER":45.7601,"MEAN_ANOMALY":314.3936,"EPHEMERIS_TYPE":0,"NORAD_CAT_ID":67387,"ELEMENT_SET_NO":999,"REV_AT_EPOCH":2666,"BSTAR":0.00030258,"MEAN_MOTION_DOT":0.00002879,"MEAN_MOTION_DDOT":0},{"OBJECT_NAME":"LEMUR-2-HCS-BAZUS","OBJECT_ID":"2026-004AB","EPOCH":"2026-07-09T17:10:41.164608","CLASSIFICATION_TYPE":"U","MEAN_MOTION":14.90243096,"ECCENTRICITY":0.0003374,"INCLINATION":97.8032,"RA_OF_ASC_NODE":189.4291,"ARG_OF_PERICENTER":46.2274,"MEAN_ANOMALY":313.9222,"EPHEMERIS_TYPE":0,"NORAD_CAT_ID":67388,"ELEMENT_SET_NO":999,"REV_AT_EPOCH":2666,"BSTAR":0.00015072,"MEAN_MOTION_DOT":0.00001407,"MEAN_MOTION_DDOT":0}]}
